ONEWEB-0603             
1 54667U 22166AB  26038.10948540  .00000129  00000+0  28047-3 0  9990
2 54667  87.9188 269.8967 0001500  76.8384 283.2918 13.21825593154293
ONEWEB-0604             
1 54668U 22166AC  26038.17366474  .00000046  00000+0  79223-4 0  9999
2 54668  87.9189 269.8992 0001537  90.6693 269.4617 13.21824992154261
ONEWEB-0605             
1 54669U 22166AD  26038.16709395  .00000023  00000+0  25214-4 0  9998
2 54669  87.9185 269.9271 0002035  71.9585 288.1771 13.21825811154333
ONEWEB-0606             
1 54670U 22166AE  26038.18847090 -.00000015  00000+0 -66698-4 0  9991
2 54670  87.9191 269.9353 0001668  92.3443 267.7882 13.21823497154394
ONEWEB-0607             
1 54671U 22166AF  26038.15556022  .00000038  00000+0  59297-4 0  9991
2 54671  87.9188 269.9055 0001522  77.3565 282.7739 13.21823704154363
ONEWEB-0608             
1 54672U 22166AG  26038.16215514  .00000049  00000+0  87552-4 0  9998
2 54672  87.9195 269.8958 0001834  69.1961 290.9370 13.21825657154370
ONEWEB-0610             
1 54673U 22166AH  26038.14240757  .00000070  00000+0  13813-3 0  9996
2 54673  87.9187 269.9270 0001837  65.5121 294.6205 13.21825914154274
ONEWEB-0611             
1 54674U 22166AJ  26038.13581360 -.00001958  00000+0 -47729-2 0  9994
2 54674  87.9189 269.9240 0001179  88.0947 272.0322 13.21836296154263
ONEWEB-0612             
1 54675U 22166AK  26038.14899676  .00000087  00000+0  17853-3 0  9994
2 54675  87.9195 269.9035 0001574  78.8321 281.2990 13.21827230154255
ONEWEB-0615             
1 54676U 22166AL  26038.12922815 -.00000089  00000+0 -24786-3 0  9992
2 54676  87.9187 269.9330 0001546  78.3729 281.7578 13.21825430154269
ONEWEB-0655             
1 54677U 22166AM  26038.18024095 -.00000181  00000+0 -47096-3 0  9994
2 54677  87.9188 269.9256 0001343  73.6227 286.5054 13.21825973154268
ONEWEB-0659             
1 54678U 22166AN  26038.19670222  .00000092  00000+0  19230-3 0  9993
2 54678  87.9190 269.9235 0001570  85.5615 274.5699 13.21824603154355
ONEWEB-0685             
1 54679U 22166AP  26038.04475453  .00090941  00000+0  21586+0 0  9992
2 54679  87.9208 269.9524 0002663 357.1853   2.9266 13.22476382154220
ONEWEB-0712             
1 54680U 22166AQ  26038.10520683 -.00000013  00000+0 -67313-4 0  9993
2 54680  87.9007 254.6654 0001031  81.2980 278.8267 13.16594669154944
ONEWEB-0714             
1 54681U 22166AR  26038.05189168  .00000099  00000+0  20781-3 0  9996
2 54681  87.9187 269.9424 0001490  76.6134 283.5167 13.21824856154342
ONEWEB-0532             
1 55140U 23004A   26038.03061742 -.00000002  00000+0 -38318-4 0  9996
2 55140  87.9112  31.7190 0002199  85.6135 274.5248 13.17647125150448
