[{"OBJECT_NAME":"ONEWEB-0603","OBJECT_ID":"2022-166AB","EPOCH":"2026-02-07T02:37:39.538560","MEAN_MOTION":13.21825593,"ECCENTRICITY":0.00015004,"INCLINATION":87.9188,"RA_OF_ASC_NODE":269.8967,"ARG_OF_PERICENTER":76.8384,"MEAN_ANOMALY":283.2918,"EPHEMERIS_TYPE":0,"CLASSIFICATION_TYPE":"U","NORAD_CAT_ID":54667,"ELEMENT_SET_NO":999,"REV_AT_EPOCH":15429,"BSTAR":0.00028047312,"MEAN_MOTION_DOT":1.29e-6,"MEAN_MOTION_DDOT":0},{"OBJECT_NAME":"ONEWEB-0604","OBJECT_ID":"2022-166AC","EPOCH":"2026-02-07T04:10:04.633536","MEAN_MOTION":13.21824992,"ECCENTRICITY":0.00015371,"INCLINATION":87.9189,"RA_OF_ASC_NODE":269.8992,"ARG_OF_PERICENTER":90.6693,"MEAN_ANOMALY":269.4617,"EPHEMERIS_TYPE":0,"CLASSIFICATION_TYPE":"U","NORAD_CAT_ID":54668,"ELEMENT_SET_NO":999,"REV_AT_EPOCH":15426,"BSTAR":7.922284e-5,"MEAN_MOTION_DOT":4.6e-7,"MEAN_MOTION_DDOT":0},{"OBJECT_NAME":"ONEWEB-0605","OBJECT_ID":"2022-166AD","EPOCH":"2026-02-07T04:00:36.917280","MEAN_MOTION":13.21825811,"ECCENTRICITY":0.00020356,"INCLINATION":87.9185,"RA_OF_ASC_NODE":269.9271,"ARG_OF_PERICENTER":71.9585,"MEAN_ANOMALY":288.1771,"EPHEMERIS_TYPE":0,"CLASSIFICATION_TYPE":"U","NORAD_CAT_ID":54669,"ELEMENT_SET_NO":999,"REV_AT_EPOCH":15433,"BSTAR":2.5214276e-5,"MEAN_MOTION_DOT":2.3e-7,"MEAN_MOTION_DDOT":0},{"OBJECT_NAME":"ONEWEB-0606","OBJECT_ID":"2022-166AE","EPOCH":"2026-02-07T04:31:23.885760","MEAN_MOTION":13.21823497,"ECCENTRICITY":0.00016681,"INCLINATION":87.9191,"RA_OF_ASC_NODE":269.9353,"ARG_OF_PERICENTER":92.3443,"MEAN_ANOMALY":267.7882,"EPHEMERIS_TYPE":0,"CLASSIFICATION_TYPE":"U","NORAD_CAT_ID":54670,"ELEMENT_SET_NO":999,"REV_AT_EPOCH":15439,"BSTAR":-6.6698449e-5,"MEAN_MOTION_DOT":-1.5e-7,"MEAN_MOTION_DDOT":0},{"OBJECT_NAME":"ONEWEB-0607","OBJECT_ID":"2022-166AF","EPOCH":"2026-02-07T03:44:00.403008","MEAN_MOTION":13.21823704,"ECCENTRICITY":0.00015225,"INCLINATION":87.9188,"RA_OF_ASC_NODE":269.9055,"ARG_OF_PERICENTER":77.3565,"MEAN_ANOMALY":282.7739,"EPHEMERIS_TYPE":0,"CLASSIFICATION_TYPE":"U","NORAD_CAT_ID":54671,"ELEMENT_SET_NO":999,"REV_AT_EPOCH":15436,"BSTAR":5.9297055e-5,"MEAN_MOTION_DOT":3.8e-7,"MEAN_MOTION_DDOT":0},{"OBJECT_NAME":"ONEWEB-0608","OBJECT_ID":"2022-166AG","EPOCH":"2026-02-07T03:53:30.204096","MEAN_MOTION":13.21825657,"ECCENTRICITY":0.00018348,"INCLINATION":87.9195,"RA_OF_ASC_NODE":269.8958,"ARG_OF_PERICENTER":69.1961,"MEAN_ANOMALY":290.937,"EPHEMERIS_TYPE":0,"CLASSIFICATION_TYPE":"U","NORAD_CAT_ID":54672,"ELEMENT_SET_NO":999,"REV_AT_EPOCH":15437,"BSTAR":8.7551562e-5,"MEAN_MOTION_DOT":4.9e-7,"MEAN_MOTION_DDOT":0},{"OBJECT_NAME":"ONEWEB-0610","OBJECT_ID":"2022-166AH","EPOCH":"2026-02-07T03:25:04.014048","MEAN_MOTION":13.21825914,"ECCENTRICITY":0.00018372,"INCLINATION":87.9187,"RA_OF_ASC_NODE":269.927,"ARG_OF_PERICENTER":65.5121,"MEAN_ANOMALY":294.6205,"EPHEMERIS_TYPE":0,"CLASSIFICATION_TYPE":"U","NORAD_CAT_ID":54673,"ELEMENT_SET_NO":999,"REV_AT_EPOCH":15427,"BSTAR":0.00013813207,"MEAN_MOTION_DOT":7.0e-7,"MEAN_MOTION_DDOT":0},{"OBJECT_NAME":"ONEWEB-0611","OBJECT_ID":"2022-166AJ","EPOCH":"2026-02-07T03:15:34.295040","MEAN_MOTION":13.21836296,"ECCENTRICITY":0.00011794,"INCLINATION":87.9189,"RA_OF_ASC_NODE":269.924,"ARG_OF_PERICENTER":88.0947,"MEAN_ANOMALY":272.0322,"EPHEMERIS_TYPE":0,"CLASSIFICATION_TYPE":"U","NORAD_CAT_ID":54674,"ELEMENT_SET_NO":999,"REV_AT_EPOCH":15426,"BSTAR":-0.0047729145,"MEAN_MOTION_DOT":-1.958e-5,"MEAN_MOTION_DDOT":0},{"OBJECT_NAME":"ONEWEB-0612","OBJECT_ID":"2022-166AK","EPOCH":"2026-02-07T03:34:33.320064","MEAN_MOTION":13.2182723,"ECCENTRICITY":0.00015746,"INCLINATION":87.9195,"RA_OF_ASC_NODE":269.9035,"ARG_OF_PERICENTER":78.8321,"MEAN_ANOMALY":281.299,"EPHEMERIS_TYPE":0,"CLASSIFICATION_TYPE":"U","NORAD_CAT_ID":54675,"ELEMENT_SET_NO":999,"REV_AT_EPOCH":15425,"BSTAR":0.00017852558,"MEAN_MOTION_DOT":8.7e-7,"MEAN_MOTION_DDOT":0},{"OBJECT_NAME":"ONEWEB-0615","OBJECT_ID":"2022-166AL","EPOCH":"2026-02-07T03:06:05.312160","MEAN_MOTION":13.2182543,"ECCENTRICITY":0.00015463,"INCLINATION":87.9187,"RA_OF_ASC_NODE":269.933,"ARG_OF_PERICENTER":78.3729,"MEAN_ANOMALY":281.7578,"EPHEMERIS_TYPE":0,"CLASSIFICATION_TYPE":"U","NORAD_CAT_ID":54676,"ELEMENT_SET_NO":999,"REV_AT_EPOCH":15426,"BSTAR":-0.00024785886,"MEAN_MOTION_DOT":-8.9e-7,"MEAN_MOTION_DDOT":0},{"OBJECT_NAME":"ONEWEB-0655","OBJECT_ID":"2022-166AM","EPOCH":"2026-02-07T04:19:32.818080","MEAN_MOTION":13.21825973,"ECCENTRICITY":0.00013433,"INCLINATION":87.9188,"RA_OF_ASC_NODE":269.9256,"ARG_OF_PERICENTER":73.6227,"MEAN_ANOMALY":286.5054,"EPHEMERIS_TYPE":0,"CLASSIFICATION_TYPE":"U","NORAD_CAT_ID":54677,"ELEMENT_SET_NO":999,"REV_AT_EPOCH":15426,"BSTAR":-0.00047095886,"MEAN_MOTION_DOT":-1.81e-6,"MEAN_MOTION_DDOT":0},{"OBJECT_NAME":"ONEWEB-0659","OBJECT_ID":"2022-166AN","EPOCH":"2026-02-07T04:43:15.071808","MEAN_MOTION":13.21824603,"ECCENTRICITY":0.00015704,"INCLINATION":87.919,"RA_OF_ASC_NODE":269.9235,"ARG_OF_PERICENTER":85.5615,"MEAN_ANOMALY":274.5699,"EPHEMERIS_TYPE":0,"CLASSIFICATION_TYPE":"U","NORAD_CAT_ID":54678,"ELEMENT_SET_NO":999,"REV_AT_EPOCH":15435,"BSTAR":0.00019229807,"MEAN_MOTION_DOT":9.2e-7,"MEAN_MOTION_DDOT":0},{"OBJECT_NAME":"ONEWEB-0685","OBJECT_ID":"2022-166AP","EPOCH":"2026-02-07T01:04:26.791392","MEAN_MOTION":13.22476382,"ECCENTRICITY":0.00026635,"INCLINATION":87.9208,"RA_OF_ASC_NODE":269.9524,"ARG_OF_PERICENTER":357.1853,"MEAN_ANOMALY":2.9266,"EPHEMERIS_TYPE":0,"CLASSIFICATION_TYPE":"U","NORAD_CAT_ID":54679,"ELEMENT_SET_NO":999,"REV_AT_EPOCH":15422,"BSTAR":0.21586154,"MEAN_MOTION_DOT":0.00090941,"MEAN_MOTION_DDOT":0},{"OBJECT_NAME":"ONEWEB-0712","OBJECT_ID":"2022-166AQ","EPOCH":"2026-02-07T02:31:29.870112","MEAN_MOTION":13.16594669,"ECCENTRICITY":0.00010315,"INCLINATION":87.9007,"RA_OF_ASC_NODE":254.6654,"ARG_OF_PERICENTER":81.298,"MEAN_ANOMALY":278.8267,"EPHEMERIS_TYPE":0,"CLASSIFICATION_TYPE":"U","NORAD_CAT_ID":54680,"ELEMENT_SET_NO":999,"REV_AT_EPOCH":15494,"BSTAR":-6.7312979e-5,"MEAN_MOTION_DOT":-1.3e-7,"MEAN_MOTION_DDOT":0},{"OBJECT_NAME":"ONEWEB-0714","OBJECT_ID":"2022-166AR","EPOCH":"2026-02-07T01:14:43.441152","MEAN_MOTION":13.21824856,"ECCENTRICITY":0.00014908,"INCLINATION":87.9187,"RA_OF_ASC_NODE":269.9424,"ARG_OF_PERICENTER":76.6134,"MEAN_ANOMALY":283.5167,"EPHEMERIS_TYPE":0,"CLASSIFICATION_TYPE":"U","NORAD_CAT_ID":54681,"ELEMENT_SET_NO":999,"REV_AT_EPOCH":15434,"BSTAR":0.00020780986,"MEAN_MOTION_DOT":9.9e-7,"MEAN_MOTION_DDOT":0},{"OBJECT_NAME":"ONEWEB-0532","OBJECT_ID":"2023-004A","EPOCH":"2026-02-07T00:44:05.345088","MEAN_MOTION":13.17647125,"ECCENTRICITY":0.00021995,"INCLINATION":87.9112,"RA_OF_ASC_NODE":31.719,"ARG_OF_PERICENTER":85.6135,"MEAN_ANOMALY":274.5248,"EPHEMERIS_TYPE":0,"CLASSIFICATION_TYPE":"U","NORAD_CAT_ID":55140,"ELEMENT_SET_NO":999,"REV_AT_EPOCH":15044,"BSTAR":-3.8317616e-5,"MEAN_MOTION_DOT":-2.0e-8,"MEAN_MOTION_DDOT":0}]
